{
  "type": "FeatureCollection",
  "features": [
    {
      "type": "Feature",
      "properties": {
        "norad_id": 28054,
        "name": "DMSP 5D-3 F16 (USA 172)",
        "group": "weather",
        "lat": 74.22458733324326,
        "lon": -39.18512031060245,
        "alt_km": 837.0098006146336,
        "timestamp": "2025-12-03T13:52:09.207934+00:00",
        "meta_object_name": "DMSP 5D-3 F16 (USA 172)",
        "meta_object_id": "2003-048A",
        "meta_epoch": "2025-12-03T08:42:52.060320",
        "meta_mean_motion": 14.14418821,
        "meta_eccentricity": 0.00068882,
        "meta_inclination": 99.0053,
        "meta_ra_of_asc_node": 354.7461,
        "meta_arg_of_pericenter": 349.4115,
        "meta_mean_anomaly": 74.4892,
        "meta_ephemeris_type": 0,
        "meta_classification_type": "U",
        "meta_norad_cat_id": 28054,
        "meta_element_set_no": 999,
        "meta_rev_at_epoch": 14180,
        "meta_bstar": 0.00014229265,
        "meta_mean_motion_dot": 2.27e-06,
        "meta_mean_motion_ddot": 0,
        "tle_line1": "1 28054U 03048A   25337.36310255  .00000227  00000+0  14229-3 0  9990",
        "tle_line2": "2 28054  99.0053 354.7461 0006888 349.4115  74.4892 14.14418821141806"
      },
      "geometry": {
        "type": "Point",
        "coordinates": [
          -39.18512031060245,
          74.22458733324326
        ]
      }
    },
    {
      "type": "Feature",
      "properties": {
        "norad_id": 28912,
        "name": "METEOSAT-9 (MSG-2)",
        "group": "weather",
        "lat": -8.921527278326753,
        "lon": -33.659201878425506,
        "alt_km": 35785.85960680675,
        "timestamp": "2025-12-03T13:52:09.207986+00:00",
        "meta_object_name": "METEOSAT-9 (MSG-2)",
        "meta_object_id": "2005-049B",
        "meta_epoch": "2025-12-02T20:50:55.807872",
        "meta_mean_motion": 1.00271253,
        "meta_eccentricity": 0.00040042,
        "meta_inclination": 8.9157,
        "meta_ra_of_asc_node": 56.0648,
        "meta_arg_of_pericenter": 185.08,
        "meta_mean_anomaly": 189.154,
        "meta_ephemeris_type": 0,
        "meta_classification_type": "U",
        "meta_norad_cat_id": 28912,
        "meta_element_set_no": 999,
        "meta_rev_at_epoch": 503,
        "meta_bstar": 0,
        "meta_mean_motion_dot": 1.39e-06,
        "meta_mean_motion_ddot": 0,
        "tle_line1": "1 28912U 05049B   25336.86870148  .00000139  00000+0  00000+0 0  9992",
        "tle_line2": "2 28912   8.9157  56.0648 0004004 185.0800 189.1540  1.00271253  5030"
      },
      "geometry": {
        "type": "Point",
        "coordinates": [
          -33.659201878425506,
          -8.921527278326753
        ]
      }
    },
    {
      "type": "Feature",
      "properties": {
        "norad_id": 29522,
        "name": "DMSP 5D-3 F17 (USA 191)",
        "group": "weather",
        "lat": 1.1978311809636404,
        "lon": -17.026587206488774,
        "alt_km": 847.3672673522842,
        "timestamp": "2025-12-03T13:52:09.208004+00:00",
        "meta_object_name": "DMSP 5D-3 F17 (USA 191)",
        "meta_object_id": "2006-050A",
        "meta_epoch": "2025-12-03T07:04:29.404128",
        "meta_mean_motion": 14.14912983,
        "meta_eccentricity": 0.00091568,
        "meta_inclination": 98.7394,
        "meta_ra_of_asc_node": 342.8805,
        "meta_arg_of_pericenter": 254.3825,
        "meta_mean_anomaly": 105.6338,
        "meta_ephemeris_type": 0,
        "meta_classification_type": "U",
        "meta_norad_cat_id": 29522,
        "meta_element_set_no": 999,
        "meta_rev_at_epoch": 98471,
        "meta_bstar": 0.00016638242,
        "meta_mean_motion_dot": 2.78e-06,
        "meta_mean_motion_ddot": 0,
        "tle_line1": "1 29522U 06050A   25337.29478477  .00000278  00000+0  16638-3 0  9992",
        "tle_line2": "2 29522  98.7394 342.8805 0009156 254.3825 105.6338 14.14912983984719"
      },
      "geometry": {
        "type": "Point",
        "coordinates": [
          -17.026587206488774,
          1.1978311809636404
        ]
      }
    },
    {
      "type": "Feature",
      "properties": {
        "norad_id": 32958,
        "name": "FENGYUN 3A",
        "group": "weather",
        "lat": -73.73834789137571,
        "lon": -51.16859321388936,
        "alt_km": 830.8366431879476,
        "timestamp": "2025-12-03T13:52:09.208018+00:00",
        "meta_object_name": "FENGYUN 3A",
        "meta_object_id": "2008-026A",
        "meta_epoch": "2025-12-03T07:27:37.529856",
        "meta_mean_motion": 14.19509604,
        "meta_eccentricity": 0.00083542,
        "meta_inclination": 98.6684,
        "meta_ra_of_asc_node": 277.0368,
        "meta_arg_of_pericenter": 339.5344,
        "meta_mean_anomaly": 20.5497,
        "meta_ephemeris_type": 0,
        "meta_classification_type": "U",
        "meta_norad_cat_id": 32958,
        "meta_element_set_no": 999,
        "meta_rev_at_epoch": 90761,
        "meta_bstar": 0.00010798259,
        "meta_mean_motion_dot": 1.84e-06,
        "meta_mean_motion_ddot": 0,
        "tle_line1": "1 32958U 08026A   25337.31085104  .00000184  00000+0  10798-3 0  9995",
        "tle_line2": "2 32958  98.6684 277.0368 0008354 339.5344  20.5497 14.19509604907613"
      },
      "geometry": {
        "type": "Point",
        "coordinates": [
          -51.16859321388936,
          -73.73834789137571
        ]
      }
    },
    {
      "type": "Feature",
      "properties": {
        "norad_id": 35491,
        "name": "GOES 14",
        "group": "weather",
        "lat": 1.1573974616592058,
        "lon": 172.29985570244,
        "alt_km": 35777.808518304475,
        "timestamp": "2025-12-03T13:52:09.208032+00:00",
        "meta_object_name": "GOES 14",
        "meta_object_id": "2009-033A",
        "meta_epoch": "2025-12-03T04:40:46.515648",
        "meta_mean_motion": 1.00272649,
        "meta_eccentricity": 0.00041773,
        "meta_inclination": 1.1725,
        "meta_ra_of_asc_node": 85.5198,
        "meta_arg_of_pericenter": 150.2207,
        "meta_mean_anomaly": 158.4028,
        "meta_ephemeris_type": 0,
        "meta_classification_type": "U",
        "meta_norad_cat_id": 35491,
        "meta_element_set_no": 999,
        "meta_rev_at_epoch": 462,
        "meta_bstar": 0,
        "meta_mean_motion_dot": -4.9e-07,
        "meta_mean_motion_ddot": 0,
        "tle_line1": "1 35491U 09033A   25337.19498282 -.00000049  00000+0  00000+0 0  9992",
        "tle_line2": "2 35491   1.1725  85.5198 0004177 150.2207 158.4028  1.00272649  4623"
      },
      "geometry": {
        "type": "Point",
        "coordinates": [
          172.29985570244,
          1.1573974616592058
        ]
      }
    },
    {
      "type": "Feature",
      "properties": {
        "norad_id": 35951,
        "name": "DMSP 5D-3 F18 (USA 210)",
        "group": "weather",
        "lat": -52.73345568618679,
        "lon": 122.1647729151543,
        "alt_km": 857.4003729136894,
        "timestamp": "2025-12-03T13:52:09.208045+00:00",
        "meta_object_name": "DMSP 5D-3 F18 (USA 210)",
        "meta_object_id": "2009-057A",
        "meta_epoch": "2025-12-03T05:58:48.318240",
        "meta_mean_motion": 14.14760404,
        "meta_eccentricity": 0.00121152,
        "meta_inclination": 98.8823,
        "meta_ra_of_asc_node": 313.698,
        "meta_arg_of_pericenter": 87.409,
        "meta_mean_anomaly": 272.847,
        "meta_ephemeris_type": 0,
        "meta_classification_type": "U",
        "meta_norad_cat_id": 35951,
        "meta_element_set_no": 999,
        "meta_rev_at_epoch": 83188,
        "meta_bstar": 0.00022516674,
        "meta_mean_motion_dot": 3.9e-06,
        "meta_mean_motion_ddot": 0,
        "tle_line1": "1 35951U 09057A   25337.24917035  .00000390  00000+0  22517-3 0  9996",
        "tle_line2": "2 35951  98.8823 313.6980 0012115  87.4090 272.8470 14.14760404831880"
      },
      "geometry": {
        "type": "Point",
        "coordinates": [
          122.1647729151543,
          -52.73345568618679
        ]
      }
    },
    {
      "type": "Feature",
      "properties": {
        "norad_id": 36411,
        "name": "EWS-G2 (GOES 15)",
        "group": "weather",
        "lat": -0.755966022226406,
        "lon": -17.7542857492846,
        "alt_km": 35785.747246683924,
        "timestamp": "2025-12-03T13:52:09.208079+00:00",
        "meta_object_name": "EWS-G2 (GOES 15)",
        "meta_object_id": "2010-008A",
        "meta_epoch": "2025-12-03T05:29:11.878080",
        "meta_mean_motion": 1.00267683,
        "meta_eccentricity": 0.0005953,
        "meta_inclination": 0.7884,
        "meta_ra_of_asc_node": 86.0546,
        "meta_arg_of_pericenter": 169.7721,
        "meta_mean_anomaly": 320.2973,
        "meta_ephemeris_type": 0,
        "meta_classification_type": "U",
        "meta_norad_cat_id": 36411,
        "meta_element_set_no": 999,
        "meta_rev_at_epoch": 5767,
        "meta_bstar": 0,
        "meta_mean_motion_dot": 5.6e-07,
        "meta_mean_motion_ddot": 0,
        "tle_line1": "1 36411U 10008A   25337.22860970  .00000056  00000+0  00000+0 0  9997",
        "tle_line2": "2 36411   0.7884  86.0546 0005953 169.7721 320.2973  1.00267683 57672"
      },
      "geometry": {
        "type": "Point",
        "coordinates": [
          -17.7542857492846,
          -0.755966022226406
        ]
      }
    }
  ]
}